OBJECT_NAME,OBJECT_ID,EPOCH,MEAN_MOTION,ECCENTRICITY,INCLINATION,RA_OF_ASC_NODE,ARG_OF_PERICENTER,MEAN_ANOMALY,EPHEMERIS_TYPE,CLASSIFICATION_TYPE,NORAD_CAT_ID,ELEMENT_SET_NO,REV_AT_EPOCH,BSTAR,MEAN_MOTION_DOT,MEAN_MOTION_DDOT
OSCAR 7 (AO-7),1974-089B,2026-06-30T11:49:48.435744,12.53698351,.00126503,101.9899,194.8782,105.4653,62.9717,0,U,7530,999,36218,.93300358E-4,-.31E-6,0
PHASE 3B (AO-10),1983-058B,2026-06-29T23:51:36.200736,2.05871195,.60065195,25.9232,217.4494,119.1882,313.2024,0,U,14129,999,29575,0,-.15E-5,0
UOSAT 2 (UO-11),1984-021B,2026-06-30T20:19:10.218720,14.90818016,.0008703,97.8065,147.2693,131.0719,229.1252,0,U,14781,999,25916,.16311E-3,.155E-4,0
LUSAT (LO-19),1990-005G,2026-06-30T12:11:11.723712,14.34127067,.00118828,98.8846,203.6802,161.9556,198.2052,0,U,20442,999,90430,.58343762E-4,.117E-5,0
EYESAT A (AO-27),1993-061C,2026-06-30T15:14:24.813024,14.30945711,.00094,98.6876,249.0434,65.0046,295.2112,0,U,22825,999,70892,.56396E-4,.104E-5,0
ITAMSAT (IO-26),1993-061D,2026-06-30T14:38:59.318592,14.31372958,.0009729,98.6824,248.9377,49.7040,310.4992,0,U,22826,999,70923,.5535E-4,.102E-5,0
RADIO ROSTO (RS15),1994-085A,2026-06-30T16:26:59.608032,11.27583406,.0156394,64.8181,281.3864,1.3788,358.7538,0,U,23439,999,29742,.40218E-3,-.28E-6,0
JAS-2 (FO-29),1996-046B,2026-06-30T20:10:59.621376,13.53274923,.0350829,98.5227,28.8419,61.1047,302.4815,0,U,24278,999,47501,.90797E-5,-.24E-6,0
TECHSAT 1B (GO-32),1998-043D,2026-06-30T11:32:20.406336,14.24430945,.00017001,99.0072,174.5750,138.6209,221.5098,0,U,25397,999,45322,.46516052E-4,.61E-6,0
ISS (ZARYA),1998-067A,2026-06-30T19:10:10.831008,15.49493260,.0004333,51.6310,232.7115,251.8365,108.2152,0,U,25544,999,57386,.11188E-3,.5824E-4,0
PCSAT (NO-44),2001-043C,2026-06-30T10:19:05.019744,14.31960263,.00060294,67.0490,210.0201,265.4507,94.5906,0,U,26931,999,29234,.68747198E-4,.101E-5,0
SAUDISAT 1C (SO-50),2002-058C,2026-06-30T05:41:21.812064,14.83073203,.00749557,64.5520,88.6095,260.0398,99.2242,0,U,27607,999,26639,.12484524E-3,.912E-5,0
CUTE-1 (CO-55),2003-031E,2026-06-29T23:06:24.280128,14.24343456,.00103009,98.6736,189.3610,142.4898,217.7002,0,U,27844,999,19349,.1534011E-3,.311E-5,0
CUBESAT XI-IV (CO-57),2003-031J,2026-06-29T22:59:01.208832,14.23627529,.00097859,98.6768,189.0585,160.0224,200.1339,0,U,27848,999,19319,.13524458E-3,.265E-5,0
MOZHAETS 4 (RS22),2003-042A,2026-06-30T20:53:00.902112,14.73490694,.0010195,98.3465,6.6157,221.0535,246.1373,0,U,27939,999,21756,.12697E-3,.771E-5,0
CUBESAT XI-V,2005-043F,2026-06-30T09:07:31.727712,14.72666866,.00145552,98.2997,337.2799,159.1785,201.0018,0,U,28895,999,10369,.23930319E-3,.1474E-4,0
CUTE-1.7+APD II (CO-65),2008-021C,2026-06-30T18:31:00.650784,15.09578189,.0008354,97.8276,163.4738,354.3773,5.7360,0,U,32785,999,98724,.36012E-3,.5722E-4,0
SEEDS II (CO-66),2008-021J,2026-06-30T10:50:25.278144,15.33195659,.00011439,97.7515,179.9864,194.0088,166.1122,0,U,32791,999,98932,.52224958E-3,.16684E-3,0
YUBILEINY (RS30),2008-025A,2026-06-30T20:38:42.133632,12.43180360,.001851,82.5042,346.9331,282.2954,77.6053,0,U,32953,999,82139,.41837E-3,.68E-6,0
KKS-1 (KISEKI),2009-002H,2026-06-30T19:36:42.759648,14.83158287,.0006479,98.1184,104.4753,241.8674,118.1884,0,U,33499,999,93821,.17938E-3,.1408E-4,0
SWISSCUBE,2009-051B,2026-06-29T16:32:06.198432,14.62504487,.00068682,98.4026,88.7947,162.6436,197.5001,0,U,35932,999,89098,.20491881E-3,.99E-5,0
BEESAT-1,2009-051C,2026-06-30T12:37:55.598880,14.61741181,.00051336,98.3953,89.2540,171.1167,189.0125,0,U,35933,999,89113,.17585542E-3,.828E-5,0
ITUPSAT1,2009-051E,2026-06-29T16:57:44.860608,14.60458458,.00069532,98.4038,87.6006,190.2945,169.8114,0,U,35935,999,89056,.16667647E-3,.759E-5,0
XIWANG-1 (HOPE-1),2009-072B,2026-06-30T20:20:43.394208,13.16440231,.0007168,100.4029,135.4623,198.1778,161.9080,0,U,36122,999,79480,.82654E-3,.271E-5,0
O/OREOS (USA 219),2010-062C,2026-06-30T01:17:55.004640,14.93797573,.00130865,71.9709,51.1931,35.6256,324.5785,0,U,37224,999,11856,.23293588E-3,.2413E-4,0
JUGNU,2011-058B,2026-06-29T12:31:59.134080,14.13779747,.00183885,19.9594,233.4895,212.2255,288.6400,0,U,37839,999,76077,.71335275E-4,.404E-5,0
SRMSAT,2011-058D,2026-06-30T17:35:15.393120,14.11578376,.0011789,19.9733,337.4831,353.4789,121.0128,0,U,37841,999,75973,.64635E-4,.384E-5,0
STRAND-1,2013-009E,2026-06-30T11:49:53.734656,14.37171160,.00084907,98.3924,1.4000,183.0829,177.0307,0,U,39090,999,69897,.11203189E-3,.291E-5,0
ZACUBE-1 (TSHEPISOSAT),2013-066B,2026-06-30T11:18:56.914848,15.01258663,.00426621,97.8044,143.8762,202.7803,157.1529,0,U,39417,999,68272,.21666338E-3,.2774E-4,0
GOMX-1,2013-066Q,2026-06-30T19:18:16.449120,14.69505340,.012952,97.6472,21.4077,34.2848,326.6634,0,U,39430,999,67191,.25754E-3,.1686E-4,0
